ONEWEB-0225             
1 48799U 21045AJ  23067.90418557 -.00000037  00000+0 -13255-3 0  9996
2 48799  87.9071 137.4185 0001425 122.8548 237.2720 13.15548840 87133
ONEWEB-0215             
1 48800U 21045AK  23067.26614474  .00000166  00000+0  40774-3 0  9991
2 48800  87.9072 137.5142 0001509 137.7787 222.3459 13.15549303 86929
ONEWEB-0216             
1 48801U 21045AL  23067.88516926  .00000178  00000+0  43939-3 0  9992
2 48801  87.9073 137.4272 0001556  94.8776 265.2532 13.15551064 87013
ONEWEB-0239             
1 48802U 21045AM  23067.88940853  .00000289  00000+0  73332-3 0  9996
2 48802  87.9166 137.3735 0001707 137.6141 222.5121 13.15550103 87057
FENGYUN 4B              
1 48808U 21047A   23066.73082110 -.00000325  00000+0  00000+0 0  9990
2 48808   0.1796  84.2715 0003300   7.7668 108.9102  1.00263036  6569
SXM-8                   
1 48838U 21049A   23067.90636337 -.00000201  00000+0  00000+0 0  9994
2 48838   0.0102 159.3175 0001365 184.6895  63.3867  1.00270509  6635
NAVSTAR 81 (USA 319)    
1 48859U 21054A   23067.77581586 -.00000074  00000+0  00000+0 0  9991
2 48859  55.2924  20.4244 0008739 219.3314  36.5641  2.00559245 12751
YAOGAN-30 AA            
1 48860U 21055A   23068.00944117  .00009592  00000+0  93801-3 0  9992
2 48860  34.9957 180.6073 0005108 125.6450 234.4731 14.91653856 93832
YAOGAN-30 AB            
1 48861U 21055B   23067.98807511  .00009360  00000+0  91525-3 0  9999
2 48861  34.9951 180.4106 0004935 145.7978 214.3045 14.91664140 93807
YAOGAN-30 AC            
1 48863U 21055D   23067.68639691  .00005474  00000+0  53617-3 0  9992
2 48863  34.9981 181.7959 0004689 230.6824 129.3486 14.91702709 93484
TIANQI-14               
1 48864U 21055E   23067.67078496  .00006899  00000+0  64652-3 0  9995
2 48864  35.0062 173.5964 0007339 290.0796  69.9133 14.93393283 93602
COSMOS 2550             
1 48865U 21056A   23067.99880017  .00000957  00000+0  34899-4 0  9992
2 48865  67.1442 118.6623 0008572 262.9834 163.2034 15.33841834 95283
STORK-5 (MARTA)         
1 48872U 21058B   23067.95759959  .00070909  00000+0  19117-2 0  9996
2 48872  60.6937  66.9241 0028657  42.1280 355.6793 15.36918935 93982
STORK-4                 
1 48873U 21058C   23068.00681042  .00078222  00000+0  20207-2 0  9999
2 48873  60.7056  66.4559 0028822  46.1941 347.8598 15.38185952 94013
CNCE3                   
1 48874U 21058D   23067.73906556  .00087463  00000+0  24120-2 0  9994
2 48874  60.7014  69.8629 0033792  53.4780 306.9417 15.35963903 93907
CNCE1                   
1 48875U 21058E   23067.73400269  .00086322  00000+0  23801-2 0  9993
2 48875  60.7018  69.8418 0033745  53.6112 306.8086 15.35976999 93907
BRIK-II                 
1 48876U 21058F   23067.75419349  .00022229  00000+0  89615-3 0  9997
2 48876  60.6764  79.4939 0033017  39.7227 320.6269 15.24350414 93716
HALO-NET FF             
1 48877U 21058G   23067.74263108  .00087418  00000+0  25318-2 0  9997
2 48877  60.7029  72.9108 0036282  42.2295 318.1581 15.34349888 93857
GUNSMOKE-J 4            
1 48878U 21058H   23067.72163028  .00052190  00000+0  17364-2 0  9997
2 48878  60.6848  76.3715 0039816  38.0635 322.3256 15.30034450 93774
STARLINK-3003           
1 48879U 21059A   23067.35293157  .00010679  00000+0  81693-3 0  9998
2 48879  97.5154 194.9403 0001904 111.5827 248.5601 15.02077725 94159
STARLINK-3004           
1 48880U 21059B   23067.35121419  .00025291  00000+0  19241-2 0  9996
2 48880  97.5127 194.9359 0001868 103.9834 256.1599 15.02090236 94156
STARLINK-3005           
1 48881U 21059C   23067.81326415  .00021356  00000+0  16265-2 0  9992
2 48881  97.5120 195.4137 0001927 109.0843 251.0591 15.02085956 94220
SPACEBEENZ-10           
1 48882U 21059D   23067.83264567  .00127941  00000+0  39542-2 0  9994
2 48882  97.5743 204.5090 0008400 260.0393  99.9901 15.32964581 94185
SPACEBEE-100            
1 48883U 21059E   23067.32700252  .00046411  00000+0  18802-2 0  9993
2 48883  97.5799 202.2674 0008138 262.7504  97.2808 15.24482038 93988
SPACEBEE-101            
1 48884U 21059F   23067.30685700  .00044938  00000+0  18440-2 0  9992
2 48884  97.5803 202.1559 0007862 266.0327  94.0011 15.24060376 93976
LEMUR-2-JACKSON         
1 48885U 21059G   23067.31914873  .00056385  00000+0  20806-2 0  9998
2 48885  97.5726 202.9030 0008743 255.9843 104.0424 15.27535720 94033
SPACEBEE-102            
1 48886U 21059H   23067.81825353  .00058928  00000+0  24103-2 0  9997
2 48886  97.5802 202.7020 0007438 262.5641  97.4750 15.24095975 94055
SPACEBEENZ-9            
1 48887U 21059J   23067.31083855  .00087388  00000+0  27237-2 0  9999
2 48887  97.5738 203.9622 0008347 260.9106  99.1191 15.32875274 94104
SPACEBEE-103            
1 48888U 21059K   23067.80110061  .00060162  00000+0  24162-2 0  9999
2 48888  97.5804 202.8965 0008147 261.6769  98.3544 15.24699643 94061
SPACEBEENZ-7            
1 48889U 21059L   23067.31073419  .00088840  00000+0  27432-2 0  9997
2 48889  97.5762 204.2792 0008698 260.7311  99.2947 15.33164143 94118
SPACEBEE-104            
1 48890U 21059M   23067.61833558  .00060715  00000+0  24261-2 0  9998
2 48890  97.5799 202.6342 0007915 264.3411  95.6924 15.24868595 94033
SPACEBEENZ-8            
1 48891U 21059N   23067.34067291  .00087915  00000+0  27505-2 0  9997
2 48891  97.5761 204.2454 0008769 261.0424  98.9825 15.32748593 94110
TYVAK-0173              
1 48892U 21059P   23067.38893181  .00004476  00000+0  68238-3 0  9997
2 48892  95.9843  72.1462 0012827 104.0547 256.2093 14.74145644 91461
SPACEBEE-106            
1 48893U 21059Q   23067.82502301  .00058364  00000+0  23715-2 0  9993
2 48893  97.5823 203.0094 0008296 263.9009  96.1283 15.24315408 94061
SPACEBEE-107            
1 48894U 21059R   23067.36933339  .00043674  00000+0  17273-2 0  9992
2 48894  97.5831 202.8618 0008263 263.4052  96.6245 15.25303168 94016
SPACEBEE-108            
1 48895U 21059S   23067.82100519  .00059669  00000+0  24207-2 0  9996
2 48895  97.5820 202.9845 0008439 263.1037  96.9240 15.24361003 94067
SPACEBEE-105            
1 48896U 21059T   23067.32040294  .00046454  00000+0  18692-2 0  9994
2 48896  97.5803 202.2658 0008203 258.3246 101.7071 15.24709102 93984
SPACEBEE-109            
1 48897U 21059U   23067.34227111  .00044325  00000+0  17669-2 0  9990
2 48897  97.5823 202.7049 0008576 262.5784  97.4479 15.25033374 94002
CENTAURI-4 (TYVAK-0211) 
1 48898U 21059V   23067.82067671  .00069206  00000+0  27048-2 0  9994
2 48898  97.5760 203.1152 0008500 261.0201  99.0074 15.25562948 94089
SPACEBEE-110            
1 48899U 21059W   23067.37617752  .00043992  00000+0  17401-2 0  9992
2 48899  97.5826 203.0077 0008757 261.3788  98.6457 15.25292670 94021
TUBIN                   
1 48900U 21059X   23067.82201345  .00016241  00000+0  81803-3 0  9997
2 48900  97.5811 201.0309 0009020 268.3888 247.0382 15.17230412 93940
TROPICS PATHFINDER      
1 48901U 21059Y   23067.81774507  .00040585  00000+0  17977-2 0  9990
2 48901  97.5702 201.5552 0008295 263.6620  96.3671 15.21485604 94026
SPACEBEE-111            
1 48904U 21059AB  23067.36747742  .00046615  00000+0  18024-2 0  9998
2 48904  97.5835 203.3807 0009334 260.0461  99.9724 15.26032561 94043
NUSAT-19 (ROSALIND)     
1 48905U 21059AC  23067.97468036  .00027443  00000+0  11085-2 0  9990
2 48905  97.5346 202.5289 0009338 226.6189 273.1022 15.24693228 94289
UMBRA-2001              
1 48906U 21059AD  23067.80073925 -.00000071  00000+0  00000+0 0  9993
2 48906  97.5552 198.4710 0008867 263.4542  96.4868 15.20928081 93837
MANDRAKE 2 ABLE         
1 48907U 21059AE  23067.32437812  .00011434  00000+0  59349-3 0  9998
2 48907  97.5834 200.5396 0009470 270.4792  89.5356 15.16254110 93871
MANDRAKE 2 BAKER        
1 48908U 21059AF  23067.32380379  .00013065  00000+0  67401-3 0  9994
2 48908  97.5844 200.5780 0008759 264.7543  95.2690 15.16440607 93872
PACE-1                  
1 48909U 21059AG  23067.81127488  .00016644  00000+0  84621-3 0  9998
2 48909  97.5752 200.4895 0009372 260.5662  99.4511 15.16892273 93952
GNOMES-2                
1 48910U 21059AH  23067.65221984  .00055205  00000+0  22534-2 0  9998
2 48910  97.5802 202.9462 0009508 253.7870 106.2321 15.24168550 94054
YAM-2                   
1 48911U 21059AJ  23067.31812271  .00018579  00000+0  90012-3 0  9997
2 48911  97.5851 201.3566 0009843 262.6680  97.3435 15.18552293 93911
ION SCV-003             
1 48912U 21059AK  23067.37086133  .00025032  00000+0  10894-2 0  9995
2 48912  97.5561 200.7642 0010819 270.1658  89.8338 15.22175449 93953
ICEYE-X12               
1 48914U 21059AM  23067.94138402  .00024790  00000+0  13539-2 0  9996
2 48914  97.5787 198.7874 0001548 177.9715 277.7079 15.14306520 93806
YAM-3                   
1 48915U 21059AN  23067.32714530  .00012996  00000+0  66664-3 0  9994
2 48915  97.5806 200.5647 0010202 259.2845 100.7239 15.16629789 93882
ICEYE-X13               
1 48916U 21059AP  23067.81900594  .00025138  00000+0  13468-2 0  9991
2 48916  97.5794 199.0326 0001360 220.0634 294.6902 15.14988633 93808
ICEYE-X15               
1 48917U 21059AQ  23067.81744250  .00030387  00000+0  13399-2 0  9992
2 48917  97.5778 202.7834 0011088 249.1227 269.1380 15.21682595 94056
ICEYE-X11               
1 48918U 21059AR  23067.96688045  .00028212  00000+0  12676-2 0  9999
2 48918  97.5773 202.6608 0010944 250.9352 205.5469 15.21056562 94061
NUSAT-22 (SOFYA)        
1 48919U 21059AS  23067.76666265  .00059831  00000+0  13933-2 0  9996
2 48919  97.3800 204.8883 0012373 175.7630 294.1458 15.41996848 95112
NUSAT-21 (ELISA)        
1 48920U 21059AT  23067.91641397  .00072957  00000+0  14257-2 0  9998
2 48920  97.3744 205.6302 0011336 180.7421 277.8932 15.47135209 95227
NUSAT-20 (GRACE)        
1 48921U 21059AU  23067.94087927  .00067376  00000+0  14191-2 0  9991
2 48921  97.3869 205.9345 0013993 198.4100 256.7978 15.44930163 95187
